IRIDIUM 152             
1 43479U 18047D   26065.26303562  .00000041  00000+0  76939-5 0  9996
2 43479  86.3981 131.3754 0002260  93.0909 267.0546 14.34217790407737
IRIDIUM 147             
1 43480U 18047E   26065.26937153  .00000294  00000+0  98020-4 0  9991
2 43480  86.3982 131.3760 0002252  99.5382 260.6069 14.34220953407738
IRIDIUM 110             
1 43481U 18047F   26065.27572111  .00000007  00000+0 -44033-5 0  9991
2 43481  86.3988 131.4620 0002416  88.4233 271.7239 14.34217642407727
IRIDIUM 162             
1 43482U 18047G   26065.20639277  .00000433  00000+0  12272-3 0  9992
2 43482  86.4505 131.4308 0002101  92.3160 267.8281 14.43284094410273
IRIDIUM 160             
1 43569U 18061A   26065.15178717  .00000041  00000+0  74315-5 0  9998
2 43569  86.3921  99.8971 0002366  91.6350 268.5117 14.34218153398600
IRIDIUM 166             
1 43570U 18061B   26065.17715745  .00000020  00000+0 -95307-7 0  9994
2 43570  86.3920  99.8383 0002218  96.6177 263.5271 14.34217887398638
IRIDIUM 158             
1 43571U 18061C   26065.14544375  .00000112  00000+0  33090-4 0  9990
2 43571  86.3919  99.8615 0002125  89.5171 270.6268 14.34218031398599
IRIDIUM 165             
1 43572U 18061D   26065.17081436  .00000080  00000+0  21632-4 0  9991
2 43572  86.3919  99.8948 0002206  96.0733 264.0715 14.34218323398628
IRIDIUM 155             
1 43573U 18061E   26065.06299069  .00000028  00000+0  29522-5 0  9992
2 43573  86.3916  99.8140 0002064  93.9700 266.1731 14.34217957398579
IRIDIUM 154             
1 43574U 18061F   26065.18350517  .00000288  00000+0  95808-4 0  9999
2 43574  86.3923  99.8927 0002239  98.2298 261.9152 14.34222843398643
IRIDIUM 163             
1 43575U 18061G   26065.16447204  .00000079  00000+0  21117-4 0  9998
2 43575  86.3916  99.8189 0002163  91.2784 268.8660 14.34218337398615
IRIDIUM 156             
1 43576U 18061H   26065.06933288  .00000068  00000+0  17226-4 0  9994
2 43576  86.3918  99.8661 0002010  93.7393 266.4033 14.34218237398591
IRIDIUM 164             
1 43577U 18061J   26065.18984336  .00000289  00000+0  96280-4 0  9990
2 43577  86.3921  99.8544 0002340  97.3621 262.7840 14.34218374398650
IRIDIUM 159             
1 43578U 18061K   26065.08836194  .00000012  00000+0 -27022-5 0  9992
2 43578  86.3918  99.8353 0002276  91.3694 268.7763 14.34217686398607
IRIDIUM 180             
1 43922U 19002A   26065.29716410 -.00000073  00000+0 -33211-4 0  9996
2 43922  86.3963  36.5835 0002193  85.0914 275.0532 14.34217002374247
IRIDIUM 176             
1 43923U 19002B   26065.25588398  .00001395  00000+0  21728-3 0  9990
2 43923  86.6090  36.5580 0002436  89.4399 270.7098 14.72250810384105
IRIDIUM 168             
1 43924U 19002C   26065.22104870  .00000377  00000+0  12762-3 0  9994
2 43924  86.3969  36.6895 0002170  85.3698 274.7745 14.34214080374211
