[{"OBJECT_NAME":"IRIDIUM 152","OBJECT_ID":"2018-047D","EPOCH":"2026-03-06T06:18:46.277568","MEAN_MOTION":14.3421779,"ECCENTRICITY":0.00022608,"INCLINATION":86.3981,"RA_OF_ASC_NODE":131.3754,"ARG_OF_PERICENTER":93.0909,"MEAN_ANOMALY":267.0546,"EPHEMERIS_TYPE":0,"CLASSIFICATION_TYPE":"U","NORAD_CAT_ID":43479,"ELEMENT_SET_NO":999,"REV_AT_EPOCH":40773,"BSTAR":7.693866e-6,"MEAN_MOTION_DOT":4.1e-7,"MEAN_MOTION_DDOT":0},{"OBJECT_NAME":"IRIDIUM 147","OBJECT_ID":"2018-047E","EPOCH":"2026-03-06T06:27:53.700192","MEAN_MOTION":14.34220953,"ECCENTRICITY":0.00022526,"INCLINATION":86.3982,"RA_OF_ASC_NODE":131.376,"ARG_OF_PERICENTER":99.5382,"MEAN_ANOMALY":260.6069,"EPHEMERIS_TYPE":0,"CLASSIFICATION_TYPE":"U","NORAD_CAT_ID":43480,"ELEMENT_SET_NO":999,"REV_AT_EPOCH":40773,"BSTAR":9.8020393e-5,"MEAN_MOTION_DOT":2.94e-6,"MEAN_MOTION_DDOT":0},{"OBJECT_NAME":"IRIDIUM 110","OBJECT_ID":"2018-047F","EPOCH":"2026-03-06T06:37:02.303904","MEAN_MOTION":14.34217642,"ECCENTRICITY":0.00024168,"INCLINATION":86.3988,"RA_OF_ASC_NODE":131.462,"ARG_OF_PERICENTER":88.4233,"MEAN_ANOMALY":271.7239,"EPHEMERIS_TYPE":0,"CLASSIFICATION_TYPE":"U","NORAD_CAT_ID":43481,"ELEMENT_SET_NO":999,"REV_AT_EPOCH":40772,"BSTAR":-4.403257e-6,"MEAN_MOTION_DOT":7.0e-8,"MEAN_MOTION_DDOT":0},{"OBJECT_NAME":"IRIDIUM 162","OBJECT_ID":"2018-047G","EPOCH":"2026-03-06T04:57:12.335328","MEAN_MOTION":14.43284094,"ECCENTRICITY":0.00021014,"INCLINATION":86.4505,"RA_OF_ASC_NODE":131.4308,"ARG_OF_PERICENTER":92.316,"MEAN_ANOMALY":267.8281,"EPHEMERIS_TYPE":0,"CLASSIFICATION_TYPE":"U","NORAD_CAT_ID":43482,"ELEMENT_SET_NO":999,"REV_AT_EPOCH":41027,"BSTAR":0.00012272054,"MEAN_MOTION_DOT":4.33e-6,"MEAN_MOTION_DDOT":0},{"OBJECT_NAME":"IRIDIUM 160","OBJECT_ID":"2018-061A","EPOCH":"2026-03-06T03:38:34.411488","MEAN_MOTION":14.34218153,"ECCENTRICITY":0.00023664,"INCLINATION":86.3921,"RA_OF_ASC_NODE":99.8971,"ARG_OF_PERICENTER":91.635,"MEAN_ANOMALY":268.5117,"EPHEMERIS_TYPE":0,"CLASSIFICATION_TYPE":"U","NORAD_CAT_ID":43569,"ELEMENT_SET_NO":999,"REV_AT_EPOCH":39860,"BSTAR":7.431548e-6,"MEAN_MOTION_DOT":4.1e-7,"MEAN_MOTION_DDOT":0},{"OBJECT_NAME":"IRIDIUM 166","OBJECT_ID":"2018-061B","EPOCH":"2026-03-06T04:15:06.403680","MEAN_MOTION":14.34217887,"ECCENTRICITY":0.00022189,"INCLINATION":86.392,"RA_OF_ASC_NODE":99.8383,"ARG_OF_PERICENTER":96.6177,"MEAN_ANOMALY":263.5271,"EPHEMERIS_TYPE":0,"CLASSIFICATION_TYPE":"U","NORAD_CAT_ID":43570,"ELEMENT_SET_NO":999,"REV_AT_EPOCH":39863,"BSTAR":-9.5307e-8,"MEAN_MOTION_DOT":2.0e-7,"MEAN_MOTION_DDOT":0},{"OBJECT_NAME":"IRIDIUM 158","OBJECT_ID":"2018-061C","EPOCH":"2026-03-06T03:29:26.340000","MEAN_MOTION":14.34218031,"ECCENTRICITY":0.00021256,"INCLINATION":86.3919,"RA_OF_ASC_NODE":99.8615,"ARG_OF_PERICENTER":89.5171,"MEAN_ANOMALY":270.6268,"EPHEMERIS_TYPE":0,"CLASSIFICATION_TYPE":"U","NORAD_CAT_ID":43571,"ELEMENT_SET_NO":999,"REV_AT_EPOCH":39859,"BSTAR":3.3090025e-5,"MEAN_MOTION_DOT":1.12e-6,"MEAN_MOTION_DDOT":0},{"OBJECT_NAME":"IRIDIUM 165","OBJECT_ID":"2018-061D","EPOCH":"2026-03-06T04:05:58.360704","MEAN_MOTION":14.34218323,"ECCENTRICITY":0.00022069,"INCLINATION":86.3919,"RA_OF_ASC_NODE":99.8948,"ARG_OF_PERICENTER":96.0733,"MEAN_ANOMALY":264.0715,"EPHEMERIS_TYPE":0,"CLASSIFICATION_TYPE":"U","NORAD_CAT_ID":43572,"ELEMENT_SET_NO":999,"REV_AT_EPOCH":39862,"BSTAR":2.1632405e-5,"MEAN_MOTION_DOT":8.0e-7,"MEAN_MOTION_DDOT":0},{"OBJECT_NAME":"IRIDIUM 155","OBJECT_ID":"2018-061E","EPOCH":"2026-03-06T01:30:42.395616","MEAN_MOTION":14.34217957,"ECCENTRICITY":0.00020641,"INCLINATION":86.3916,"RA_OF_ASC_NODE":99.814,"ARG_OF_PERICENTER":93.97,"MEAN_ANOMALY":266.1731,"EPHEMERIS_TYPE":0,"CLASSIFICATION_TYPE":"U","NORAD_CAT_ID":43573,"ELEMENT_SET_NO":999,"REV_AT_EPOCH":39857,"BSTAR":2.9522e-6,"MEAN_MOTION_DOT":2.8e-7,"MEAN_MOTION_DDOT":0},{"OBJECT_NAME":"IRIDIUM 154","OBJECT_ID":"2018-061F","EPOCH":"2026-03-06T04:24:14.846688","MEAN_MOTION":14.34222843,"ECCENTRICITY":0.00022393,"INCLINATION":86.3923,"RA_OF_ASC_NODE":99.8927,"ARG_OF_PERICENTER":98.2298,"MEAN_ANOMALY":261.9152,"EPHEMERIS_TYPE":0,"CLASSIFICATION_TYPE":"U","NORAD_CAT_ID":43574,"ELEMENT_SET_NO":999,"REV_AT_EPOCH":39864,"BSTAR":9.5807852e-5,"MEAN_MOTION_DOT":2.88e-6,"MEAN_MOTION_DDOT":0},{"OBJECT_NAME":"IRIDIUM 163","OBJECT_ID":"2018-061G","EPOCH":"2026-03-06T03:56:50.384256","MEAN_MOTION":14.34218337,"ECCENTRICITY":0.00021635,"INCLINATION":86.3916,"RA_OF_ASC_NODE":99.8189,"ARG_OF_PERICENTER":91.2784,"MEAN_ANOMALY":268.866,"EPHEMERIS_TYPE":0,"CLASSIFICATION_TYPE":"U","NORAD_CAT_ID":43575,"ELEMENT_SET_NO":999,"REV_AT_EPOCH":39861,"BSTAR":2.1116646e-5,"MEAN_MOTION_DOT":7.9e-7,"MEAN_MOTION_DDOT":0},{"OBJECT_NAME":"IRIDIUM 156","OBJECT_ID":"2018-061H","EPOCH":"2026-03-06T01:39:50.360832","MEAN_MOTION":14.34218237,"ECCENTRICITY":0.00020104,"INCLINATION":86.3918,"RA_OF_ASC_NODE":99.8661,"ARG_OF_PERICENTER":93.7393,"MEAN_ANOMALY":266.4033,"EPHEMERIS_TYPE":0,"CLASSIFICATION_TYPE":"U","NORAD_CAT_ID":43576,"ELEMENT_SET_NO":999,"REV_AT_EPOCH":39859,"BSTAR":1.7226064e-5,"MEAN_MOTION_DOT":6.8e-7,"MEAN_MOTION_DDOT":0},{"OBJECT_NAME":"IRIDIUM 164","OBJECT_ID":"2018-061J","EPOCH":"2026-03-06T04:33:22.466304","MEAN_MOTION":14.34218374,"ECCENTRICITY":0.00023406,"INCLINATION":86.3921,"RA_OF_ASC_NODE":99.8544,"ARG_OF_PERICENTER":97.3621,"MEAN_ANOMALY":262.784,"EPHEMERIS_TYPE":0,"CLASSIFICATION_TYPE":"U","NORAD_CAT_ID":43577,"ELEMENT_SET_NO":999,"REV_AT_EPOCH":39865,"BSTAR":9.6279742e-5,"MEAN_MOTION_DOT":2.89e-6,"MEAN_MOTION_DDOT":0},{"OBJECT_NAME":"IRIDIUM 159","OBJECT_ID":"2018-061K","EPOCH":"2026-03-06T02:07:14.471616","MEAN_MOTION":14.34217686,"ECCENTRICITY":0.00022762,"INCLINATION":86.3918,"RA_OF_ASC_NODE":99.8353,"ARG_OF_PERICENTER":91.3694,"MEAN_ANOMALY":268.7763,"EPHEMERIS_TYPE":0,"CLASSIFICATION_TYPE":"U","NORAD_CAT_ID":43578,"ELEMENT_SET_NO":999,"REV_AT_EPOCH":39860,"BSTAR":-2.702209e-6,"MEAN_MOTION_DOT":1.2e-7,"MEAN_MOTION_DDOT":0},{"OBJECT_NAME":"IRIDIUM 180","OBJECT_ID":"2019-002A","EPOCH":"2026-03-06T07:07:54.978240","MEAN_MOTION":14.34217002,"ECCENTRICITY":0.00021938,"INCLINATION":86.3963,"RA_OF_ASC_NODE":36.5835,"ARG_OF_PERICENTER":85.0914,"MEAN_ANOMALY":275.0532,"EPHEMERIS_TYPE":0,"CLASSIFICATION_TYPE":"U","NORAD_CAT_ID":43922,"ELEMENT_SET_NO":999,"REV_AT_EPOCH":37424,"BSTAR":-3.321077e-5,"MEAN_MOTION_DOT":-7.3e-7,"MEAN_MOTION_DDOT":0},{"OBJECT_NAME":"IRIDIUM 176","OBJECT_ID":"2019-002B","EPOCH":"2026-03-06T06:08:28.375872","MEAN_MOTION":14.7225081,"ECCENTRICITY":0.0002436,"INCLINATION":86.609,"RA_OF_ASC_NODE":36.558,"ARG_OF_PERICENTER":89.4399,"MEAN_ANOMALY":270.7098,"EPHEMERIS_TYPE":0,"CLASSIFICATION_TYPE":"U","NORAD_CAT_ID":43923,"ELEMENT_SET_NO":999,"REV_AT_EPOCH":38410,"BSTAR":0.00021728435,"MEAN_MOTION_DOT":1.395e-5,"MEAN_MOTION_DDOT":0},{"OBJECT_NAME":"IRIDIUM 168","OBJECT_ID":"2019-002C","EPOCH":"2026-03-06T05:18:18.607680","MEAN_MOTION":14.3421408,"ECCENTRICITY":0.00021702,"INCLINATION":86.3969,"RA_OF_ASC_NODE":36.6895,"ARG_OF_PERICENTER":85.3698,"MEAN_ANOMALY":274.7745,"EPHEMERIS_TYPE":0,"CLASSIFICATION_TYPE":"U","NORAD_CAT_ID":43924,"ELEMENT_SET_NO":999,"REV_AT_EPOCH":37421,"BSTAR":0.00012762087,"MEAN_MOTION_DOT":3.77e-6,"MEAN_MOTION_DDOT":0}]
